C/2024 G7 (ATLAS),h,02/09.8677/2025,131.5044,191.9760,289.6474,1.001346,6.027290,2000,7.0,4.0
# From MPC194189
P/2024 J1 (PANSTARRS),e,13.1637,321.9366,200.3904,3.809167,0.1325742,0.30782907,127.3225,06/29.0/2026,2000,g 14.5,4.0
# From MPC191588
C/2024 J2 (Wierzchos),e,79.3018,189.0681,143.1400,145.9224,0.0005591,0.98758922,0.0000,03/19.7296/2025,2000,g 11.5,4.0
# From MPEC 2026-M30
C/2024 J3 (ATLAS),h,11/25.4226/2026,75.6398,285.9603,74.0904,1.000060,3.865476,2000,5.0,4.0
# From MPEC 2026-M30
C/2024 J4 (Lemmon),e,117.5163,19.3142,127.8556,4434,0.0000033,0.99871550,0.0000,04/25.9082/2025,2000,g  8.0,4.0
# From MPC194190
P/2024 K1 (PANSTARRS),e,1.8204,251.5875,349.3752,6.834361,0.0551642,0.49076579,43.8838,06/29.0/2026,2000,g 13.5,4.0
# From MPC194190
C/2024 L1 (PANSTARRS),e,99.1499,45.1347,171.7766,11.46038,0.0254042,0.53335081,10.9758,06/29.0/2026,2000,g 10.0,4.0
# From MPEC 2026-L50
C/2024 L2 (PANSTARRS),h,06/16.7845/2025,139.5811,266.1801,345.8513,1.004858,8.325859,2000,7.5,3.2
# From MPC194190
C/2024 L3 (PANSTARRS),h,11/23.3910/2023,111.5921,295.0041,59.0413,1.003189,6.857707,2000,9.5,4.0
# From MPEC 2026-GD5
C/2024 L5 (ATLAS),h,03/11.2205/2025,166.5924,139.1794,290.7144,1.039092,3.439022,2000,9.0,4.0
# From MPC194190
C/2024 M1 (ATLAS),e,73.7079,76.2232,345.6015,29.75819,0.0060715,0.94273317,3.5583,06/29.0/2026,2000,g 12.0,4.0
# From MPC194190
C/2024 N1 (PANSTARRS),h,10/18.9688/2025,88.7812,323.0259,91.2703,1.000902,4.398727,2000,10.5,4.0
# From MPEC 2026-M30
C/2024 N3 (Sarneczky),h,04/11.6336/2025,88.7251,82.6145,86.9028,1.002275,5.014829,2000,8.0,4.0
# From MPC194190
C/2024 N4 (Sarneczky),h,01/10.4309/2025,49.7954,339.6445,116.7616,1.003238,5.399646,2000,7.5,4.0
# From MPC194190
C/2024 O1 (PANSTARRS),e,59.0824,303.3467,349.8214,32530,0.0000002,0.99979701,0.0000,01/27.7263/2023,2000,g  8.5,4.0
# From MPC194190
P/2024 O2 (PANSTARRS),e,28.9814,6.8119,310.7304,7.373051,0.0492304,0.49854802,39.3987,06/29.0/2026,2000,g 12.0,4.0
# From MPC194191
C/2024 PN7 (PANSTARRS),e,101.2029,358.5840,74.2652,66.49292,0.0018178,0.97706938,0.0000,12/06.3368/2024,2000,g 15.2,4.0
# From MPC194191
C/2024 Q3 (PANSTARRS),h,03/05.1528/2025,121.3853,337.2869,70.1392,1.001201,2.092356,2000,15.0,4.0
# From MPC194191
C/2024 Q4 (PANSTARRS),e,3.3176,324.2643,133.0404,476.3210,0.0000948,0.98862028,0.0000,11/11.5829/2024,2000,g 10.0,4.0
# From MPC194191
P/2024 R2 (PANSTARRS),e,15.1244,192.9653,203.7601,3.146066,0.1766251,0.26881355,112.3074,06/29.0/2026,2000,g 15.5,4.0
# From MPC194191
P/2024 R3 (PANSTARRS),e,14.7013,32.8408,309.7784,3.201334,0.1720709,0.26906289,134.1825,06/29.0/2026,2000,g 15.0,4.0
# From MPEC 2026-M30
C/2024 R4 (PANSTARRS),h,10/26.8154/2027,95.3792,345.9467,109.0141,1.002218,4.408430,2000,6.5,4.0
# From MPC194192
P/2024 S2 (Rankin),e,7.5251,8.3173,49.1867,5.010507,0.0878783,0.59142815,57.1929,06/29.0/2026,2000,g 15.0,4.0
# From MPC194192
P/2024 T1 (Rankin),e,17.6200,279.7116,164.8848,6.598135,0.0581530,0.65322473,37.0249,06/29.0/2026,2000,g 14.5,4.0
# From MPC194192
P/2024 T2 (Rankin),e,12.9288,113.0599,343.8600,6.172994,0.0642629,0.68032661,36.4810,06/29.0/2026,2000,g 16.0,4.0
# From MPC194192
C/2024 T3 (PANSTARRS),e,53.4006,74.7973,336.9045,87.55397,0.0012031,0.95755453,0.5664,06/29.0/2026,2000,g 11.5,4.0
# From MPC194192
C/2024 T5 (ATLAS),h,05/06.3127/2027,52.3877,100.6769,352.4801,1.002161,3.839672,2000,5.5,4.0
# From MPC194192
C/2024 U1 (PANSTARRS),e,128.7570,270.2715,188.1330,495.1311,0.0000895,0.99022842,0.0000,06/30.7385/2024,2000,g 10.0,4.0
# From MPC194192
A/2024 U2,h,01/15.6864/2026,120.6747,56.0778,29.8515,1.003457,8.179027,2000,12.1,2.0
# From MPC194192
C/2024 V1 (Borisov),e,54.6241,328.1893,168.6928,233.2683,0.0002766,0.99005805,0.0000,04/04.1385/2025,2000,g 14.8,4.0
# From MPC194192
C/2024 W1 (PANSTARRS),e,83.2041,310.7244,256.7512,45.27080,0.0032358,0.94343231,1.5105,06/29.0/2026,2000,g 15.0,4.0
# From MPC194192
A/2024 W2,h,02/27.4791/2025,116.6155,241.9425,168.0264,1.002185,3.721404,2000,15.6,2.0
# From MPEC 2026-L50
C/2024 X1 (Fazekas),e,6.4737,351.9204,124.3469,9.390132,0.0342528,0.59357598,11.3088,06/29.0/2026,2000,g 11.3,4.0
# From MPEC 2026-GD5
C/2024 X2 (ATLAS),e,109.2989,122.5201,315.5272,51.75424,0.0026472,0.92912214,0.9453,06/29.0/2026,2000,g  9.6,4.0
# From MPEC 2026-K60
P/2024 X3 (PANSTARRS),e,2.9724,113.3632,352.9967,6.997059,0.0532514,0.62616615,35.2072,06/29.0/2026,2000,g 14.6,4.0
# From MPC194193
C/2024 X4 (PANSTARRS),e,34.6420,258.9377,153.3745,10.11621,0.0306322,0.64362714,9.1781,06/29.0/2026,2000,g 12.6,4.0
# From MPC194193
C/2024 XK14 (Bok),e,109.2063,239.0948,243.4954,17.02423,0.0140315,0.87901971,5.6695,06/29.0/2026,2000,g 15.5,4.0
# From MPEC 2026-M30
C/2025 A1 (Lemmon),e,33.4038,101.3084,68.3405,36373,0.0000001,0.99985330,0.0000,03/15.0057/2027,2000,g  7.2,4.0
# From MPC194193
P/2025 A2 (PANSTARRS),e,20.7334,189.3186,278.0827,5.083324,0.0859968,0.32181179,54.2873,06/29.0/2026,2000,g 13.2,4.0
# From MPEC 2026-HH0
C/2025 A3 (Tsuchinshan),e,9.9760,322.4295,222.3694,10.20369,0.0302390,0.43234531,3.1836,06/29.0/2026,2000,g  9.0,4.0
# From MPC194193
C/2025 A4 (PANSTARRS),e,32.0204,69.9169,102.8290,11.07235,0.0267513,0.65456760,14.2205,06/29.0/2026,2000,g 12.4,4.0
# From MPEC 2026-M30
C/2025 A6 (Lemmon),e,143.6635,108.0977,132.9578,121.5960,0.0007351,0.99564270,0.0000,11/08.5341/2025,2000,g 13.2,4.0
# From MPC194194
A/2025 A7,e,133.6558,348.8631,195.5837,2551,0.0000077,0.99886947,0.0000,03/28.0533/2025,2000,g 14.9,2.0
# From MPC194194
C/2025 B1 (PANSTARRS),e,39.6648,102.8460,23.5572,13359,0.0000006,0.99973577,0.0000,06/26.8160/2025,2000,g 12.0,4.0
# From MPEC 2026-M30
C/2025 B2 (Borisov),h,09/11.9710/2026,91.7463,84.8713,78.8727,1.002445,8.238753,2000,6.2,4.0
# From MPC194194
P/2025 C1 (ATLAS),e,7.5166,9.0875,186.8359,4.197581,0.1146055,0.34581664,58.1386,06/29.0/2026,2000,g 10.8,4.0
# From MPC194194
C/2025 D1 (Groeller),h,05/22.7765/2028,84.4491,312.9034,185.9668,1.003172,14.115594,2000,1.2,4.0
# From MPEC 2026-H88
P/2025 D2 (PANSTARRS),e,5.3584,257.1833,317.9288,8.710840,0.0383366,0.14868503,322.1606,06/29.0/2026,2000,g  8.2,4.0
# From MPC194194
P/2025 D3 (PANSTARRS),e,9.6418,186.6287,294.5917,3.969018,0.1246463,0.25243700,87.6032,06/29.0/2026,2000,g 14.7,4.0
# From MPC194194
P/2025 D4 (ATLAS),e,15.9372,233.1117,332.9037,8.914210,0.0370322,0.63487625,18.5021,06/29.0/2026,2000,g 13.2,4.0
# From MPC194194
C/2025 D6 (ATLAS),e,145.8729,151.5432,285.5233,1090,0.0000274,0.99770021,0.0000,12/11.2649/2024,2000,g 13.2,4.0
# From MPEC 2026-L50
C/2025 E1 (PANSTARRS),e,69.0593,344.5893,274.4240,1790,0.0000130,0.99776652,0.0000,09/23.7070/2026,2000,g  9.7,4.0
# From MPC194195
C/2025 F2 (SWAN),h,05/01.1439/2025,90.3762,329.8198,153.8523,1.000150,0.333853,2000,11.2,4.0
# From MPEC 2026-L50
C/2025 J1 (Borisov),e,95.4318,273.9823,166.6170,1895,0.0000119,0.99811061,0.0000,06/11.7486/2026,2000,g  9.1,4.0
# From MPC191590
C/2025 K1 (ATLAS),h,10/08.4306/2025,147.8650,97.5606,271.0219,1.000229,0.334214,2000,12.2,4.0
# From MPC191590
C/2025 K1-B,h,10/08.4425/2025,147.9175,97.6425,271.3223,1.001962,0.335762,2000,14.7,4.0
# From MPC191590
C/2025 K1-C,e,147.8475,97.5325,270.9206,1359,0.0000197,0.99975453,0.0000,10/08.4293/2025,2000,g 14.0,4.0
# From MPC194195
C/2025 K1-D,h,10/08.4492/2025,147.9564,97.7060,271.5454,1.003088,0.336929,2000,14.0,4.0
# From MPC194195
C/2025 K2 (PANSTARRS),e,113.9795,113.8291,232.4637,25.26455,0.0077613,0.88664959,1.9147,06/29.0/2026,2000,g 13.7,4.0
# From MPEC 2026-M30
C/2025 K3 (PANSTARRS),h,12/14.1264/2028,104.9365,350.6530,188.6224,1.001341,3.468658,2000,6.4,4.0
# From MPC191590
C/2025 K4 (Siverd),e,38.5438,297.0815,326.9175,43.34666,0.0034536,0.94159132,1.1596,06/29.0/2026,2000,g 14.1,4.0
# From MPEC 2026-L50
C/2025 L1 (ATLAS),h,01/12.7363/2026,114.1360,208.1104,341.2538,1.001430,1.679722,2000,11.4,4.0
# From MPEC 2026-L50
C/2025 L2 (MAPS),e,86.5844,134.9868,232.6412,472.4246,0.0000960,0.99400184,0.0000,12/20.6520/2025,2000,g 11.7,4.0
# From MPEC 2026-L50
C/2025 M1 (PANSTARRS),e,64.8836,66.9567,230.3853,5405,0.0000025,0.99799571,0.0000,08/02.4627/2029,2000,g  2.9,4.0
# From MPEC 2026-M30
C/2025 M2 (PANSTARRS),h,11/23.5460/2027,173.2153,305.5343,96.7559,1.001808,2.721058,2000,13.4,4.0
# From MPEC 2026-M30
C/2025 M3 (PANSTARRS),e,137.2161,65.3543,197.0156,6681,0.0000018,0.99903141,0.0000,07/23.1983/2026,2000,g  9.0,4.0
# From MPC191591
C/2025 N2 (ATLAS),h,12/10.4417/2024,81.6640,94.4597,229.9988,1.001274,8.982538,2000,5.1,4.0
# From MPC194196
C/2025 O2 (MAPS),e,134.5469,332.3116,280.2534,3047,0.0000059,0.99924881,0.0000,05/23.7569/2025,2000,g 14.3,4.0
# From MPC194196
A/2025 O4,e,144.2422,68.6446,151.9473,185.6410,0.0003897,0.98286658,0.0000,06/10.0869/2025,2000,g 15.4,2.0
# From MPC194196
A/2025 P1,e,117.7982,342.4262,334.5178,56.73290,0.0023065,0.96165621,1.0505,06/29.0/2026,2000,g 17.1,4.0
# From MPC191591
C/2025 Q1 (ATLAS),e,66.1650,326.9401,280.2327,1371,0.0000194,0.99263531,0.0000,07/11.9445/2024,2000,g  3.8,4.0
# From MPEC 2026-M30
C/2025 Q3 (ATLAS),e,90.1855,233.1443,218.4597,775.8734,0.0000456,0.99727719,0.0000,02/25.6489/2026,2000,g 12.2,4.0
# From MPEC 2026-M30
C/2025 R1 (ATLAS),e,110.0247,60.3995,77.5538,166.8538,0.0004573,0.98816206,0.0000,11/23.3422/2025,2000,g 14.0,4.0
# From MPEC 2026-M30
C/2025 R2 (SWAN),e,4.4729,335.3163,308.3739,86.73252,0.0012202,0.99418635,0.0000,09/12.8275/2025,2000,g 12.4,4.0
# From MPEC 2026-M30
C/2025 R3 (PANSTARRS),h,04/19.8937/2026,124.7313,38.6949,162.2260,1.000355,0.498623,2000,12.2,4.0
# From MPEC 2026-K60
A/2025 S2,e,96.6426,34.4750,31.5900,63.24286,0.0019597,0.97333639,0.0000,01/02.4128/2026,2000,g 16.0,2.0
# From MPC191591
A/2025 S3,e,103.5642,36.7315,71.1297,216.4329,0.0003095,0.98962987,0.0000,06/25.0967/2026,2000,g 15.0,2.0
# From MPEC 2026-K60
C/2025 T1 (ATLAS),e,123.4350,140.4953,114.1410,3860,0.0000041,0.99971279,0.0000,12/02.3816/2025,2000,g 14.7,4.0
# From MPEC 2026-K60
P/2025 U1 (Hogan),e,23.8294,234.9096,264.0636,5.895564,0.0688519,0.29337180,6.5469,06/29.0/2026,2000,g 11.7,4.0
# From MPEC 2026-GD5
